<q:quakeml xmlns:q="http://quakeml.org/xmlns/quakeml-rt/1.2" xmlns="http://quakeml.org/xmlns/bed-rt/1.2" xmlns:vs="http://quakeml.org/xmlns/vstypes/0.1">
  <eventParameters publicID="smi:org.gfz-potsdam.de/geofon/NA">
    <magnitude publicID="smi:org.gfz-potsdam.de/geofon/Magnitude#20150108104330.346236.1303794776">
      <originID>smi:org.gfz-potsdam.de/geofon/smi_ch.ethz.sed/sc3a/origin/NLL.20150108104327.436612.78769</originID>
      <mag>
        <value>2.149998426</value>
      </mag>
      <type>MVS</type>
      <stationCount>5</stationCount>
    </magnitude>
    <pick publicID="smi:org.gfz-potsdam.de/geofon/smi_ch.ethz.sed/sc3a/Pick/NLoT_apick/20150108104319.149949.326590">
      <time>
        <value>2015-01-08T10:43:18.78Z</value>
      </time>
      <waveformID networkCode="CH" stationCode="BOBI" locationCode="BT" channelCode="EHZ"/>
    </pick>
    <pick publicID="smi:org.gfz-potsdam.de/geofon/smi_ch.ethz.sed/sc3a/Pick/NLoT_apick/20150108104324.295969.326596">
      <time>
        <value>2015-01-08T10:43:19.749999Z</value>
      </time>
      <waveformID networkCode="CH" stationCode="EMMET" channelCode="HHZ"/>
    </pick>
    <pick publicID="smi:org.gfz-potsdam.de/geofon/smi_ch.ethz.sed/sc3a/Pick/NLoT_apick/20150108104324.14011.326595">
      <time>
        <value>2015-01-08T10:43:19.96Z</value>
      </time>
      <waveformID networkCode="CH" stationCode="ACB" channelCode="HHZ"/>
    </pick>
    <pick publicID="smi:org.gfz-potsdam.de/geofon/smi_ch.ethz.sed/sc3a/Pick/NLoT_apick/20150108104320.314812.326591">
      <time>
        <value>2015-01-08T10:43:17.424933Z</value>
      </time>
      <waveformID networkCode="CH" stationCode="SULZ" channelCode="HHZ"/>
    </pick>
    <pick publicID="smi:org.gfz-potsdam.de/geofon/smi_ch.ethz.sed/sc3a/Pick/NLoT_apick/20150108104325.753191.326598">
      <time>
        <value>2015-01-08T10:43:21.485Z</value>
      </time>
      <waveformID networkCode="CH" stationCode="ROTHE" channelCode="HHZ"/>
    </pick>
    <pick publicID="smi:org.gfz-potsdam.de/geofon/smi_ch.ethz.sed/sc3a/Pick/NLoT_apick/20150108104327.371174.326603">
      <time>
        <value>2015-01-08T10:43:22.654899Z</value>
      </time>
      <waveformID networkCode="CH" stationCode="SLE" channelCode="HHZ"/>
    </pick>
    <origin publicID="smi:org.gfz-potsdam.de/geofon/smi_ch.ethz.sed/sc3a/origin/NLL.20150108104327.436612.78769">
      <time>
        <value>2015-01-08T10:43:12.617508Z</value>
      </time>
      <latitude>
        <value>47.26526719</value>
        <uncertainty>26.73916593</uncertainty>
      </latitude>
      <longitude>
        <value>8.466671328</value>
        <uncertainty>23.36242999</uncertainty>
      </longitude>
      <depth>
        <value>2007.8125</value>
        <uncertainty>8008.306725</uncertainty>
      </depth>
      <originUncertainty>
        <horizontalUncertainty>52.7604041</horizontalUncertainty>
        <minHorizontalUncertainty>10.77719155</minHorizontalUncertainty>
        <maxHorizontalUncertainty>52.7604041</maxHorizontalUncertainty>
        <azimuthMaxHorizontalUncertainty>139.1938707</azimuthMaxHorizontalUncertainty>
        <confidenceEllipsoid>
          <semiMajorAxisLength>65.79126782</semiMajorAxisLength>
          <semiMinorAxisLength>11.42889818</semiMinorAxisLength>
          <semiIntermediateAxisLength>14.75987161</semiIntermediateAxisLength>
          <majorAxisPlunge>96.67504173</majorAxisPlunge>
          <majorAxisAzimuth>130.8767792</majorAxisAzimuth>
          <majorAxisRotation>137.2270941</majorAxisRotation>
        </confidenceEllipsoid>
      </originUncertainty>
      <arrival publicID="smi:org.gfz-potsdam.de/geofon/smi_ch.ethz.sed/sc3a/Pick/NLoT_apick/20150108104319.149949.326590#smi_ch.ethz.sed/sc3a/origin/NLL.20150108104327.436612.78769">
        <pickID>smi:org.gfz-potsdam.de/geofon/smi_ch.ethz.sed/sc3a/Pick/NLoT_apick/20150108104319.149949.326590</pickID>
        <phase>P</phase>
        <timeCorrection>0</timeCorrection>
      </arrival>
      <arrival publicID="smi:org.gfz-potsdam.de/geofon/smi_ch.ethz.sed/sc3a/Pick/NLoT_apick/20150108104324.295969.326596#smi_ch.ethz.sed/sc3a/origin/NLL.20150108104327.436612.78769">
        <pickID>smi:org.gfz-potsdam.de/geofon/smi_ch.ethz.sed/sc3a/Pick/NLoT_apick/20150108104324.295969.326596</pickID>
        <phase>P</phase>
        <timeCorrection>0</timeCorrection>
      </arrival>
      <arrival publicID="smi:org.gfz-potsdam.de/geofon/smi_ch.ethz.sed/sc3a/Pick/NLoT_apick/20150108104324.14011.326595#smi_ch.ethz.sed/sc3a/origin/NLL.20150108104327.436612.78769">
        <pickID>smi:org.gfz-potsdam.de/geofon/smi_ch.ethz.sed/sc3a/Pick/NLoT_apick/20150108104324.14011.326595</pickID>
        <phase>P</phase>
        <timeCorrection>0</timeCorrection>
      </arrival>
      <arrival publicID="smi:org.gfz-potsdam.de/geofon/smi_ch.ethz.sed/sc3a/Pick/NLoT_apick/20150108104320.314812.326591#smi_ch.ethz.sed/sc3a/origin/NLL.20150108104327.436612.78769">
        <pickID>smi:org.gfz-potsdam.de/geofon/smi_ch.ethz.sed/sc3a/Pick/NLoT_apick/20150108104320.314812.326591</pickID>
        <phase>P</phase>
        <timeCorrection>0</timeCorrection>
      </arrival>
      <arrival publicID="smi:org.gfz-potsdam.de/geofon/smi_ch.ethz.sed/sc3a/Pick/NLoT_apick/20150108104325.753191.326598#smi_ch.ethz.sed/sc3a/origin/NLL.20150108104327.436612.78769">
        <pickID>smi:org.gfz-potsdam.de/geofon/smi_ch.ethz.sed/sc3a/Pick/NLoT_apick/20150108104325.753191.326598</pickID>
        <phase>P</phase>
        <timeCorrection>0</timeCorrection>
      </arrival>
      <arrival publicID="smi:org.gfz-potsdam.de/geofon/smi_ch.ethz.sed/sc3a/Pick/NLoT_apick/20150108104327.371174.326603#smi_ch.ethz.sed/sc3a/origin/NLL.20150108104327.436612.78769">
        <pickID>smi:org.gfz-potsdam.de/geofon/smi_ch.ethz.sed/sc3a/Pick/NLoT_apick/20150108104327.371174.326603</pickID>
        <phase>P</phase>
        <timeCorrection>0</timeCorrection>
      </arrival>
    </origin>
    <event publicID="smi:org.gfz-potsdam.de/geofon/smi_ch.ethz.sed/sc3a/2015anrkmj">
      <preferredOriginID>smi:org.gfz-potsdam.de/geofon/smi_ch.ethz.sed/sc3a/origin/NLL.20150108104327.436612.78769</preferredOriginID>
      <preferredMagnitudeID>smi:org.gfz-potsdam.de/geofon/Magnitude#20150108104330.346236.1303794776</preferredMagnitudeID>
      <vs:likelihood>0.12</vs:likelihood>
    </event>
  </eventParameters>
</q:quakeml>
