<q:quakeml xmlns:q="http://quakeml.org/xmlns/quakeml-rt/1.2" xmlns="http://quakeml.org/xmlns/bed-rt/1.2" xmlns:vs="http://quakeml.org/xmlns/vstypes/0.1">
  <eventParameters publicID="smi:org.gfz-potsdam.de/geofon/NA">
    <magnitude publicID="smi:org.gfz-potsdam.de/geofon/Magnitude#20150108104328.347678.1303793389">
      <originID>smi:org.gfz-potsdam.de/geofon/smi_ch.ethz.sed/sc3a/Origin/20150108104327.410366.650599</originID>
      <mag>
        <value>1.549998999</value>
      </mag>
      <type>MVS</type>
      <stationCount>3</stationCount>
    </magnitude>
    <pick publicID="smi:org.gfz-potsdam.de/geofon/smi_ch.ethz.sed/sc3a/Pick/NLoT_apick/20150108104320.314812.326591">
      <time>
        <value>2015-01-08T10:43:17.424933Z</value>
      </time>
      <waveformID networkCode="CH" stationCode="SULZ" channelCode="HHZ"/>
    </pick>
    <pick publicID="smi:org.gfz-potsdam.de/geofon/smi_ch.ethz.sed/sc3a/Pick/NLoT_apick/20150108104324.14011.326595">
      <time>
        <value>2015-01-08T10:43:19.96Z</value>
      </time>
      <waveformID networkCode="CH" stationCode="ACB" channelCode="HHZ"/>
    </pick>
    <pick publicID="smi:org.gfz-potsdam.de/geofon/smi_ch.ethz.sed/sc3a/Pick/NLoT_apick/20150108104319.149949.326590">
      <time>
        <value>2015-01-08T10:43:18.78Z</value>
      </time>
      <waveformID networkCode="CH" stationCode="BOBI" locationCode="BT" channelCode="EHZ"/>
    </pick>
    <pick publicID="smi:org.gfz-potsdam.de/geofon/smi_ch.ethz.sed/sc3a/Pick/NLoT_apick/20150108104324.295969.326596">
      <time>
        <value>2015-01-08T10:43:19.749999Z</value>
      </time>
      <waveformID networkCode="CH" stationCode="EMMET" channelCode="HHZ"/>
    </pick>
    <pick publicID="smi:org.gfz-potsdam.de/geofon/smi_ch.ethz.sed/sc3a/Pick/NLoT_apick/20150108104325.753191.326598">
      <time>
        <value>2015-01-08T10:43:21.485Z</value>
      </time>
      <waveformID networkCode="CH" stationCode="ROTHE" channelCode="HHZ"/>
    </pick>
    <pick publicID="smi:org.gfz-potsdam.de/geofon/smi_ch.ethz.sed/sc3a/Pick/NLoT_apick/20150108104327.371174.326603">
      <time>
        <value>2015-01-08T10:43:22.654899Z</value>
      </time>
      <waveformID networkCode="CH" stationCode="SLE" channelCode="HHZ"/>
    </pick>
    <origin publicID="smi:org.gfz-potsdam.de/geofon/smi_ch.ethz.sed/sc3a/Origin/20150108104327.410366.650599">
      <time>
        <value>2015-01-08T10:43:15.83977Z</value>
        <uncertainty>3.617558569</uncertainty>
      </time>
      <latitude>
        <value>47.50519943</value>
        <uncertainty>7.695008619</uncertainty>
      </latitude>
      <longitude>
        <value>8.197823524</value>
        <uncertainty>4.743556219</uncertainty>
      </longitude>
      <depth>
        <value>8553.734779</value>
        <uncertainty>25172.72364</uncertainty>
      </depth>
      <arrival publicID="smi:org.gfz-potsdam.de/geofon/smi_ch.ethz.sed/sc3a/Pick/NLoT_apick/20150108104320.314812.326591#smi_ch.ethz.sed/sc3a/Origin/20150108104327.410366.650599">
        <pickID>smi:org.gfz-potsdam.de/geofon/smi_ch.ethz.sed/sc3a/Pick/NLoT_apick/20150108104320.314812.326591</pickID>
        <phase>P</phase>
      </arrival>
      <arrival publicID="smi:org.gfz-potsdam.de/geofon/smi_ch.ethz.sed/sc3a/Pick/NLoT_apick/20150108104324.14011.326595#smi_ch.ethz.sed/sc3a/Origin/20150108104327.410366.650599">
        <pickID>smi:org.gfz-potsdam.de/geofon/smi_ch.ethz.sed/sc3a/Pick/NLoT_apick/20150108104324.14011.326595</pickID>
        <phase>P</phase>
      </arrival>
      <arrival publicID="smi:org.gfz-potsdam.de/geofon/smi_ch.ethz.sed/sc3a/Pick/NLoT_apick/20150108104319.149949.326590#smi_ch.ethz.sed/sc3a/Origin/20150108104327.410366.650599">
        <pickID>smi:org.gfz-potsdam.de/geofon/smi_ch.ethz.sed/sc3a/Pick/NLoT_apick/20150108104319.149949.326590</pickID>
        <phase>P</phase>
      </arrival>
      <arrival publicID="smi:org.gfz-potsdam.de/geofon/smi_ch.ethz.sed/sc3a/Pick/NLoT_apick/20150108104324.295969.326596#smi_ch.ethz.sed/sc3a/Origin/20150108104327.410366.650599">
        <pickID>smi:org.gfz-potsdam.de/geofon/smi_ch.ethz.sed/sc3a/Pick/NLoT_apick/20150108104324.295969.326596</pickID>
        <phase>P</phase>
      </arrival>
      <arrival publicID="smi:org.gfz-potsdam.de/geofon/smi_ch.ethz.sed/sc3a/Pick/NLoT_apick/20150108104325.753191.326598#smi_ch.ethz.sed/sc3a/Origin/20150108104327.410366.650599">
        <pickID>smi:org.gfz-potsdam.de/geofon/smi_ch.ethz.sed/sc3a/Pick/NLoT_apick/20150108104325.753191.326598</pickID>
        <phase>P</phase>
      </arrival>
      <arrival publicID="smi:org.gfz-potsdam.de/geofon/smi_ch.ethz.sed/sc3a/Pick/NLoT_apick/20150108104327.371174.326603#smi_ch.ethz.sed/sc3a/Origin/20150108104327.410366.650599">
        <pickID>smi:org.gfz-potsdam.de/geofon/smi_ch.ethz.sed/sc3a/Pick/NLoT_apick/20150108104327.371174.326603</pickID>
        <phase>P</phase>
      </arrival>
    </origin>
    <event publicID="smi:org.gfz-potsdam.de/geofon/smi_ch.ethz.sed/sc3a/2015anrkmj">
      <preferredOriginID>smi:org.gfz-potsdam.de/geofon/smi_ch.ethz.sed/sc3a/Origin/20150108104327.410366.650599</preferredOriginID>
      <preferredMagnitudeID>smi:org.gfz-potsdam.de/geofon/Magnitude#20150108104328.347678.1303793389</preferredMagnitudeID>
      <vs:likelihood>0.4</vs:likelihood>
    </event>
  </eventParameters>
</q:quakeml>
